[{"OBJECT_NAME":"JAY-C","OBJECT_ID":"2025-009BM","EPOCH":"2026-03-09T21:49:25.741344","MEAN_MOTION":15.21616071,"ECCENTRICITY":0.00037153,"INCLINATION":97.4007,"RA_OF_ASC_NODE":149.4579,"ARG_OF_PERICENTER":347.8678,"MEAN_ANOMALY":12.2468,"EPHEMERIS_TYPE":0,"CLASSIFICATION_TYPE":"U","NORAD_CAT_ID":62668,"ELEMENT_SET_NO":999,"REV_AT_EPOCH":12127,"BSTAR":0.00023436914,"MEAN_MOTION_DOT":5.223e-5,"MEAN_MOTION_DDOT":0},{"OBJECT_NAME":"CZ-6A DEB","OBJECT_ID":"2024-140GE","EPOCH":"2026-03-09T23:15:37.114848","MEAN_MOTION":15.28179091,"ECCENTRICITY":0.00907227,"INCLINATION":89.625,"RA_OF_ASC_NODE":325.5051,"ARG_OF_PERICENTER":77.5431,"MEAN_ANOMALY":283.5952,"EPHEMERIS_TYPE":0,"CLASSIFICATION_TYPE":"U","NORAD_CAT_ID":60803,"ELEMENT_SET_NO":999,"REV_AT_EPOCH":8608,"BSTAR":0.0028689301,"MEAN_MOTION_DOT":0.00089907,"MEAN_MOTION_DDOT":0}]
